{"type":"FeatureCollection","features":[{"type":"Feature","properties":{"nom":"Between the Lines Winery","adresse":"991 Four Mile Creek Road","telephone":"(905) 262-0289","site":"http://www.betweenthelineswinery.com/","lots":0,"lots_nommes":0,"hectares":0},"geometry":{"type":"Point","coordinates":[-79.10212,43.19304]}},{"type":"Feature","properties":{"nom":"Big Head Wines","adresse":"304 Hunter Road","telephone":"(905) 468-4321","site":"http://www.bigheadwines.ca/","lots":0,"lots_nommes":0,"hectares":0},"geometry":{"type":"Point","coordinates":[-79.10956,43.24116]}},{"type":"Feature","properties":{"nom":"Caroline Cellars","adresse":"1028 Line 2 Road","telephone":"(905) 468-8814","site":"http://www.carolinecellars.com/","lots":0,"lots_nommes":0,"hectares":0},"geometry":{"type":"Point","coordinates":[-79.09632,43.22041]}},{"type":"Feature","properties":{"nom":"Cattail Creek Estate Winery","adresse":"1156 Concession 6 Road","telephone":"(905) 988-9463","site":"http://www.cattailcreek.ca/","lots":7,"lots_nommes":0,"hectares":44.5},"geometry":{"type":"Point","coordinates":[-79.1359,43.20107]}},{"type":"Feature","properties":{"nom":"Chateau des Charmes","adresse":"1025 York Road","telephone":"(905) 262-4219","site":"http://www.chateaudescharmes.com","lots":6,"lots_nommes":5,"hectares":77.9},"geometry":{"type":"Point","coordinates":[-79.12753,43.15573]}},{"type":"Feature","properties":{"nom":"Colaneri Estate Winery","adresse":"348 Concession 6 Road","telephone":"(905) 682-2100","site":"https://www.colaneriwines.com/","lots":6,"lots_nommes":0,"hectares":66.3},"geometry":{"type":"Point","coordinates":[-79.13705,43.16264]}},{"type":"Feature","properties":{"nom":"Coyote's Run Estate Winery","adresse":"485 Concession 5 Road","telephone":"(905) 682-8310","site":"http://www.coyotesrunwinery.com","lots":4,"lots_nommes":0,"hectares":8.5},"geometry":{"type":"Point","coordinates":[-79.11792,43.17097]}},{"type":"Feature","properties":{"nom":"Domaine Vagners Winery","adresse":"1973 Four Mile Creek Road","telephone":"(905) 468-7296","site":"http://domainevagners.com/about-the-winery/","lots":2,"lots_nommes":0,"hectares":5.6},"geometry":{"type":"Point","coordinates":[-79.12627,43.23639]}},{"type":"Feature","properties":{"nom":"Frogpond Farm","adresse":"1385 Larkin Road","telephone":"(905) 468-1079","site":"http://www.frogpondfarm.ca","lots":0,"lots_nommes":0,"hectares":0},"geometry":{"type":"Point","coordinates":[-79.07164,43.19893]}},{"type":"Feature","properties":{"nom":"Icellars Estate Winery","adresse":"615 Concession 5 Road","telephone":"(289) 479-5969","site":"http://www.icellars.ca/","lots":0,"lots_nommes":0,"hectares":0},"geometry":{"type":"Point","coordinates":[-79.1209,43.17328]}},{"type":"Feature","properties":{"nom":"Inniskillin Wines Inc.","adresse":"1499 Line 3 Road","telephone":"(905) 468-2187","site":"http://www.inniskillin.com","lots":5,"lots_nommes":0,"hectares":59.1},"geometry":{"type":"Point","coordinates":[-79.064,43.21087]}},{"type":"Feature","properties":{"nom":"Jackson-Triggs Niagara Estate","adresse":"2145 Niagara Stone Road","telephone":"(905) 468-4637","site":"http://www.jacksontriggswinery.com","lots":2,"lots_nommes":0,"hectares":4.9},"geometry":{"type":"Point","coordinates":[-79.09157,43.24392]}},{"type":"Feature","properties":{"nom":"Joseph's Estate Wines","adresse":"1811 Niagara Stone Road","telephone":"(905) 468-1259","site":"http://www.josephsestatewines.com","lots":0,"lots_nommes":0,"hectares":0},"geometry":{"type":"Point","coordinates":[-79.10745,43.23212]}},{"type":"Feature","properties":{"nom":"Konzelmann Estate Winery","adresse":"1096 Lakeshore Road","telephone":"(905) 935-2866","site":"http://www.konzelmann.ca/","lots":9,"lots_nommes":0,"hectares":30.8},"geometry":{"type":"Point","coordinates":[-79.14307,43.25117]}},{"type":"Feature","properties":{"nom":"Lailey Winery","adresse":"15940 Niagara River Parkway","telephone":"(905) 468-8188","site":"http://www.laileyvineyard.com","lots":5,"lots_nommes":0,"hectares":48.4},"geometry":{"type":"Point","coordinates":[-79.06251,43.23164]}},{"type":"Feature","properties":{"nom":"Lakeview Wine Co.","adresse":"1067 Niagara Stone Road","telephone":"(905) 685-5673","site":"https://www.lakeviewwineco.com/site/home","lots":11,"lots_nommes":0,"hectares":107.1},"geometry":{"type":"Point","coordinates":[-79.14249,43.20523]}},{"type":"Feature","properties":{"nom":"Maleta Vineyards","adresse":"450 Queenston Road","telephone":"(905) 685-8486","site":"http://www.maletawinery.com","lots":0,"lots_nommes":0,"hectares":0},"geometry":{"type":"Point","coordinates":[-79.15985,43.16499]}},{"type":"Feature","properties":{"nom":"Marynissen Estates","adresse":"1208 Concession 1 Road","telephone":"(905) 468-7270","site":"http://www.marynissen.com","lots":3,"lots_nommes":0,"hectares":76.2},"geometry":{"type":"Point","coordinates":[-79.07415,43.20509]}},{"type":"Feature","properties":{"nom":"Niagara College Teaching Winery","adresse":"135 Taylor Road","telephone":"(905) 641-2252","site":"http://www.niagaracollegewine.ca/","lots":0,"lots_nommes":0,"hectares":0},"geometry":{"type":"Point","coordinates":[-79.16614,43.15294]}},{"type":"Feature","properties":{"nom":"NOMAD at Hinterbrook Winery","adresse":"1181 Lakeshore Road","telephone":"(905) 646-9617","site":"http://hinterbrook.com/","lots":6,"lots_nommes":0,"hectares":32.8},"geometry":{"type":"Point","coordinates":[-79.13585,43.24673]}},{"type":"Feature","properties":{"nom":"Palatine Hills Estate","adresse":"911 Lakeshore Road","telephone":"(905) 646-9617","site":"http://www.palatinehillsestatewinery.com/site/home","lots":21,"lots_nommes":0,"hectares":74.7},"geometry":{"type":"Point","coordinates":[-79.14938,43.24145]}},{"type":"Feature","properties":{"nom":"Peller Estates Winery","adresse":"290 John Street East","telephone":"(905) 468-4678","site":"http://www.peller.com","lots":5,"lots_nommes":2,"hectares":17.7},"geometry":{"type":"Point","coordinates":[-79.06731,43.23856]}},{"type":"Feature","properties":{"nom":"Pillitteri Estates Winery","adresse":"1696 Niagara Stone Road","telephone":"(905) 468-3147","site":"http://www.pillitteri.com","lots":0,"lots_nommes":0,"hectares":0},"geometry":{"type":"Point","coordinates":[-79.11434,43.23089]}},{"type":"Feature","properties":{"nom":"PondView Estate Winery","adresse":"925 Line 2 Road","telephone":"(905) 468-0777","site":"http://www.pondviewwinery.com/site/home","lots":12,"lots_nommes":0,"hectares":41},"geometry":{"type":"Point","coordinates":[-79.10188,43.21537]}},{"type":"Feature","properties":{"nom":"Rancourt Winery","adresse":"1829 Concession 4 Road","telephone":"(905) 468-2882","site":"http://www.rancourtwinery.com/EN/index.html","lots":0,"lots_nommes":0,"hectares":0},"geometry":{"type":"Point","coordinates":[-79.11119,43.23597]}},{"type":"Feature","properties":{"nom":"Ravine Vineyard","adresse":"1366 York Road","telephone":"(905) 262-8463","site":"https://www.ravinevineyard.com/","lots":8,"lots_nommes":0,"hectares":48.3},"geometry":{"type":"Point","coordinates":[-79.1033,43.16047]}},{"type":"Feature","properties":{"nom":"Reif Estate Winery","adresse":"15608 Niagara River Parkway","telephone":"(905) 468-7738","site":"http://www.reifwinery.com","lots":10,"lots_nommes":0,"hectares":59.9},"geometry":{"type":"Point","coordinates":[-79.06157,43.21758]}},{"type":"Feature","properties":{"nom":"Reimer Vineyards","adresse":"1289 Line 3 Road","telephone":"(905) 468-9417","site":"http://www.reimervineyards.com/www.reimervineyards.com/Winery_Welcome.html","lots":1,"lots_nommes":0,"hectares":3.9},"geometry":{"type":"Point","coordinates":[-79.07922,43.20941]}},{"type":"Feature","properties":{"nom":"Riverview Cellars","adresse":"15370 Niagara River Parkway","telephone":"(905) 262-0636","site":"http://www.riverviewcellars.com","lots":5,"lots_nommes":1,"hectares":14.8},"geometry":{"type":"Point","coordinates":[-79.05917,43.20538]}},{"type":"Feature","properties":{"nom":"Small Talk Vineyards","adresse":"1242 Irvine Road","telephone":"(905) 935-3535","site":"http://smalltalkvineyards.com/","lots":9,"lots_nommes":0,"hectares":108.7},"geometry":{"type":"Point","coordinates":[-79.17484,43.22313]}},{"type":"Feature","properties":{"nom":"Southbrook Vineyards","adresse":"581 Niagara Stone Road","telephone":"(905) 641-2548","site":"http://southbrook.com/","lots":17,"lots_nommes":0,"hectares":24},"geometry":{"type":"Point","coordinates":[-79.16157,43.18798]}},{"type":"Feature","properties":{"nom":"Stonechurch Vineyards","adresse":"1242 Irvine Road","telephone":"(905) 935-3535","site":"http://www.stonechurch.com","lots":0,"lots_nommes":0,"hectares":0},"geometry":{"type":"Point","coordinates":[-79.17484,43.22313]}},{"type":"Feature","properties":{"nom":"Stratus Winery","adresse":"2059 Niagara Stone Road","telephone":"(905) 468-1806","site":"http://www.stratuswines.com","lots":11,"lots_nommes":0,"hectares":70},"geometry":{"type":"Point","coordinates":[-79.09584,43.23904]}},{"type":"Feature","properties":{"nom":"Strewn Winery","adresse":"1339 Lakeshore Road","telephone":"(905) 468-1229","site":"http://www.strewnwinery.com","lots":4,"lots_nommes":0,"hectares":7.3},"geometry":{"type":"Point","coordinates":[-79.12615,43.25197]}},{"type":"Feature","properties":{"nom":"Sunnybrook Farm Estate Winery","adresse":"1425 Lakeshore Road","telephone":"(905) 468-1122","site":"http://www.sunnybrookfarmwinery.com","lots":0,"lots_nommes":0,"hectares":0},"geometry":{"type":"Point","coordinates":[-79.11993,43.25151]}},{"type":"Feature","properties":{"nom":"The Hare Wine Co.","adresse":"769 Niagara Stone Road","telephone":"(289) 272-0140","site":"http://www.theharewineco.com","lots":3,"lots_nommes":0,"hectares":30.2},"geometry":{"type":"Point","coordinates":[-79.15528,43.19572]}},{"type":"Feature","properties":{"nom":"The Ice House Winery","adresse":"14778 Niagara River Parkway","telephone":"(855) 331-6161","site":"http://www.theicehouse.ca/","lots":4,"lots_nommes":0,"hectares":15.7},"geometry":{"type":"Point","coordinates":[-79.06142,43.1775]}},{"type":"Feature","properties":{"nom":"Trius Winery at Hillebrand","adresse":"1249 Niagara Stone Road","telephone":"(905) 468-7123","site":"http://www.triuswines.com/cms-trius/","lots":5,"lots_nommes":0,"hectares":33},"geometry":{"type":"Point","coordinates":[-79.13362,43.21148]}},{"type":"Feature","properties":{"nom":"Two Sisters Vineyards","adresse":"240 John Street East","telephone":"(905) 468-0592","site":"http://www.twosistersvineyards.com/site/home","lots":2,"lots_nommes":1,"hectares":25.4},"geometry":{"type":"Point","coordinates":[-79.06859,43.24111]}},{"type":"Feature","properties":{"nom":"Wayne Gretzky Estates Winery","adresse":"1219 Niagara Stone Road","telephone":null,"site":"http://www.gretzkyestateswines.com/","lots":6,"lots_nommes":0,"hectares":66},"geometry":{"type":"Point","coordinates":[-79.13476,43.21141]}}]}