{"type":"FeatureCollection","features":[{"type":"Feature","properties":{"nom":"Concession 1","genre":"concession"},"geometry":{"type":"MultiLineString","coordinates":[[[-79.07073,43.20356],[-79.07076,43.20419]],[[-79.0717,43.22671],[-79.07185,43.22968],[-79.07187,43.23012],[-79.07188,43.23042]],[[-79.06977,43.17317],[-79.06979,43.17393]],[[-79.07083,43.20603],[-79.07089,43.20739]],[[-79.07034,43.19273],[-79.07035,43.19318],[-79.07039,43.19445],[-79.07044,43.19622],[-79.07045,43.19654]],[[-79.07121,43.21536],[-79.07121,43.21539],[-79.07134,43.21852]],[[-79.07048,43.19714],[-79.07048,43.19717],[-79.0706,43.20032]],[[-79.06973,43.17073],[-79.06976,43.17242]],[[-79.0701,43.18522],[-79.07014,43.18643],[-79.07014,43.18653]],[[-79.06968,43.1677],[-79.0697,43.16882]],[[-79.06976,43.17242],[-79.06977,43.17317]],[[-79.07136,43.21914],[-79.07136,43.21915],[-79.07143,43.22062],[-79.07147,43.22146],[-79.07148,43.22175],[-79.07153,43.22284]],[[-79.07076,43.20419],[-79.07082,43.20578],[-79.07083,43.20603]],[[-79.07045,43.19654],[-79.07048,43.19714]],[[-79.07091,43.20791],[-79.07097,43.20938],[-79.071,43.21013],[-79.07101,43.21039],[-79.07106,43.21164]],[[-79.07106,43.21164],[-79.07106,43.21173],[-79.07108,43.21219],[-79.0711,43.21266],[-79.07111,43.21286],[-79.07112,43.21327],[-79.07115,43.21394],[-79.07117,43.21431],[-79.07121,43.21536]],[[-79.07153,43.22284],[-79.07154,43.22298],[-79.07154,43.22308],[-79.07155,43.22322],[-79.07162,43.22494],[-79.0717,43.22671]],[[-79.07062,43.20066],[-79.07073,43.20356]],[[-79.07033,43.19259],[-79.07033,43.19269],[-79.07034,43.19273]],[[-79.07016,43.18704],[-79.07022,43.189]],[[-79.0706,43.20032],[-79.07062,43.20066]],[[-79.06979,43.17393],[-79.0698,43.17448]],[[-79.07028,43.19094],[-79.0703,43.19142],[-79.07031,43.19193],[-79.07033,43.19255],[-79.07033,43.19259]],[[-79.07008,43.18446],[-79.0701,43.18522]],[[-79.07188,43.23042],[-79.07194,43.23167],[-79.07195,43.23182]],[[-79.06979,43.16635],[-79.06975,43.1664],[-79.06973,43.16647],[-79.0697,43.16672],[-79.06968,43.1677]],[[-79.07195,43.23182],[-79.07198,43.23254],[-79.07198,43.23261],[-79.07209,43.23482]],[[-79.0697,43.16882],[-79.06973,43.17073]],[[-79.07089,43.20739],[-79.0709,43.20781],[-79.07091,43.20787],[-79.07091,43.20791]],[[-79.0698,43.17448],[-79.06984,43.17637],[-79.06986,43.17773],[-79.06992,43.18049],[-79.06995,43.18145],[-79.07008,43.18446]],[[-79.07022,43.189],[-79.07027,43.19047],[-79.07028,43.19085],[-79.07028,43.19094]],[[-79.07134,43.21852],[-79.07136,43.21914]],[[-79.07014,43.18653],[-79.07016,43.18704]]]}},{"type":"Feature","properties":{"nom":"Concession 2","genre":"concession"},"geometry":{"type":"MultiLineString","coordinates":[[[-79.08542,43.22629],[-79.08545,43.22706],[-79.08546,43.22732],[-79.08549,43.2282]],[[-79.08383,43.19075],[-79.08386,43.19134],[-79.08388,43.19171],[-79.08392,43.19243],[-79.08392,43.19246]],[[-79.084,43.19392],[-79.08402,43.19431]],[[-79.08453,43.15862],[-79.08444,43.15882],[-79.08427,43.15899],[-79.08408,43.1591],[-79.08285,43.15956],[-79.08275,43.15962],[-79.0827,43.15965]],[[-79.08268,43.16075],[-79.08282,43.16605]],[[-79.08433,43.20099],[-79.08436,43.20167],[-79.08437,43.20186],[-79.08437,43.20195]],[[-79.08268,43.16073],[-79.08268,43.16075]],[[-79.08425,43.19906],[-79.08427,43.19963]],[[-79.08285,43.16852],[-79.08285,43.16854],[-79.08287,43.16921],[-79.08287,43.16963]],[[-79.08332,43.1811],[-79.08338,43.18238]],[[-79.08525,43.22251],[-79.08529,43.22347]],[[-79.08412,43.1962],[-79.08418,43.19742],[-79.08418,43.19744]],[[-79.08313,43.17726],[-79.08314,43.17754]],[[-79.08294,43.17352],[-79.08313,43.17726]],[[-79.0827,43.15965],[-79.08266,43.15976],[-79.08268,43.16073]],[[-79.08338,43.18238],[-79.08343,43.18323]],[[-79.08287,43.16963],[-79.08287,43.16966],[-79.08288,43.16996],[-79.08288,43.17013],[-79.0829,43.17209]],[[-79.08549,43.2282],[-79.08551,43.22872],[-79.08555,43.22961],[-79.08556,43.23002],[-79.08563,43.23183],[-79.08565,43.23236],[-79.08573,43.23454]],[[-79.08352,43.18493],[-79.08355,43.18553],[-79.08357,43.18582]],[[-79.08418,43.19744],[-79.08421,43.19816],[-79.08425,43.19906]],[[-79.08523,43.22221],[-79.08525,43.22248],[-79.08525,43.22251]],[[-79.0829,43.17209],[-79.08294,43.17352]],[[-79.08445,43.20379],[-79.08446,43.20393]],[[-79.08402,43.19431],[-79.08403,43.19444],[-79.08412,43.1962]],[[-79.08343,43.18323],[-79.08344,43.18347]],[[-79.08392,43.19246],[-79.084,43.19392]],[[-79.08507,43.21877],[-79.08522,43.222],[-79.08523,43.22221]],[[-79.08427,43.19963],[-79.08429,43.20001]],[[-79.08282,43.16605],[-79.08284,43.16768],[-79.08285,43.16831],[-79.08285,43.16852]],[[-79.08379,43.18999],[-79.08382,43.19056],[-79.08382,43.19064],[-79.08383,43.19075]],[[-79.08344,43.18347],[-79.08352,43.18493]],[[-79.08357,43.18582],[-79.08361,43.1867]],[[-79.08437,43.20195],[-79.08438,43.20214],[-79.08439,43.20239],[-79.0844,43.20266],[-79.08444,43.20351],[-79.08445,43.20379]],[[-79.08529,43.22347],[-79.0853,43.22355],[-79.08533,43.22436],[-79.08537,43.22532]],[[-79.08475,43.21134],[-79.08477,43.21192],[-79.08479,43.21231],[-79.0848,43.21255],[-79.08482,43.21295],[-79.08483,43.21316],[-79.08484,43.21354],[-79.08484,43.21356],[-79.08485,43.21362],[-79.08488,43.21436],[-79.08488,43.21438],[-79.08488,43.21443],[-79.08491,43.21509],[-79.08491,43.21511],[-79.08491,43.21513],[-79.08496,43.21617],[-79.08497,43.21641],[-79.08499,43.21686],[-79.08499,43.21688],[-79.08499,43.21693],[-79.085,43.21702],[-79.085,43.21704],[-79.085,43.21708],[-79.08501,43.21725],[-79.08502,43.21752],[-79.08502,43.21754],[-79.08502,43.21757],[-79.08507,43.21877]],[[-79.08431,43.20052],[-79.08431,43.20059],[-79.08432,43.20075],[-79.08433,43.20097],[-79.08433,43.20099]],[[-79.08361,43.1867],[-79.08367,43.18771],[-79.0837,43.18836],[-79.08372,43.1887]],[[-79.08429,43.20001],[-79.08431,43.20042],[-79.08431,43.20049],[-79.08431,43.20052]],[[-79.08372,43.1887],[-79.08379,43.18999]],[[-79.08314,43.17754],[-79.08319,43.17863],[-79.08332,43.1811]],[[-79.0854,43.22578],[-79.08542,43.22629]],[[-79.08537,43.22532],[-79.0854,43.22578]]]}},{"type":"Feature","properties":{"nom":"Concession 3","genre":"concession"},"geometry":{"type":"MultiLineString","coordinates":[[[-79.09792,43.21848],[-79.09811,43.22195],[-79.09811,43.2221],[-79.09819,43.2236],[-79.09823,43.22434],[-79.09832,43.22605]],[[-79.09585,43.15896],[-79.09588,43.16066],[-79.09588,43.16196]],[[-79.09757,43.21102],[-79.09766,43.21286],[-79.09772,43.21407],[-79.09776,43.21491]],[[-79.09588,43.16196],[-79.09591,43.16342],[-79.09591,43.16524],[-79.09592,43.16592]],[[-79.09605,43.17338],[-79.09605,43.17375],[-79.09608,43.17518],[-79.09608,43.17531]],[[-79.09584,43.15853],[-79.09585,43.15896]],[[-79.09776,43.21491],[-79.09779,43.21563],[-79.09792,43.21848]]]}},{"type":"Feature","properties":{"nom":"Concession 3 Road","genre":"concession"},"geometry":{"type":"MultiLineString","coordinates":[[[-79.09649,43.18842],[-79.09649,43.18842],[-79.09649,43.18911],[-79.09652,43.18988],[-79.09655,43.19221],[-79.09667,43.19488],[-79.09674,43.19606]],[[-79.09674,43.19606],[-79.09681,43.19723]],[[-79.09832,43.22605],[-79.09832,43.22638],[-79.09831,43.22674],[-79.09832,43.22727],[-79.09832,43.22752],[-79.09834,43.22771],[-79.09836,43.22811],[-79.09838,43.22857],[-79.0984,43.22881],[-79.09842,43.22921],[-79.09842,43.22954],[-79.09844,43.22966],[-79.09844,43.22971],[-79.09847,43.23037],[-79.09848,43.23068],[-79.0985,43.23101],[-79.09852,43.23123],[-79.09851,43.2313],[-79.09852,43.23142],[-79.09852,43.23163],[-79.09853,43.23184],[-79.09854,43.23203],[-79.09853,43.23234],[-79.09853,43.23237],[-79.09855,43.23241],[-79.09856,43.23245],[-79.09857,43.23256],[-79.09857,43.23271],[-79.09856,43.23312],[-79.09857,43.23327],[-79.09857,43.23338],[-79.09858,43.23367],[-79.0986,43.23395],[-79.09863,43.23423]]]}},{"type":"Feature","properties":{"nom":"Concession 4","genre":"concession"},"geometry":{"type":"MultiLineString","coordinates":[[[-79.11148,43.22577],[-79.11158,43.22765],[-79.11158,43.22767],[-79.11158,43.22773],[-79.11162,43.22851],[-79.11163,43.2286],[-79.11163,43.22865],[-79.11171,43.23016],[-79.11171,43.23021],[-79.11171,43.23026],[-79.11172,43.23041]],[[-79.11222,43.23939],[-79.11224,43.23965],[-79.11224,43.23971],[-79.11227,43.24009],[-79.11227,43.24013],[-79.11228,43.24024],[-79.11232,43.2409]],[[-79.11142,43.2246],[-79.11148,43.22577]],[[-79.11115,43.21906],[-79.11118,43.21955],[-79.11122,43.22055],[-79.11127,43.22147]],[[-79.11127,43.22147],[-79.11137,43.22361],[-79.11139,43.22385],[-79.11142,43.2246]],[[-79.11172,43.23041],[-79.11173,43.23054],[-79.11184,43.23305],[-79.11185,43.2334]],[[-79.11185,43.2334],[-79.11187,43.23387]],[[-79.11073,43.21075],[-79.11102,43.21682],[-79.11106,43.21746],[-79.1111,43.21818]],[[-79.11187,43.23387],[-79.11196,43.23534]],[[-79.11196,43.23534],[-79.11198,43.23565],[-79.11216,43.23835],[-79.11216,43.23841],[-79.11218,43.2387],[-79.1122,43.23906],[-79.11222,43.23939]],[[-79.1111,43.21818],[-79.11115,43.21906]]]}},{"type":"Feature","properties":{"nom":"Concession 5","genre":"concession"},"geometry":{"type":"MultiLineString","coordinates":[[[-79.12179,43.16465],[-79.12191,43.1668],[-79.12191,43.1669],[-79.12193,43.16719],[-79.12194,43.16744],[-79.12206,43.16964],[-79.12213,43.17092],[-79.12223,43.17278]],[[-79.12303,43.18776],[-79.12331,43.19544]],[[-79.12127,43.154],[-79.12129,43.15435]],[[-79.12129,43.15435],[-79.12152,43.15779]],[[-79.12264,43.18031],[-79.12269,43.18106],[-79.12276,43.18185],[-79.12282,43.18294],[-79.12288,43.18417],[-79.12299,43.18684],[-79.12303,43.18776]],[[-79.12223,43.17278],[-79.12225,43.1732],[-79.12264,43.18031]]]}},{"type":"Feature","properties":{"nom":"Concession 6","genre":"concession"},"geometry":{"type":"MultiLineString","coordinates":[[[-79.13408,43.15509],[-79.13417,43.15744]],[[-79.13547,43.20266],[-79.13549,43.20311],[-79.13556,43.20463]],[[-79.13499,43.18536],[-79.135,43.18553],[-79.135,43.18567]],[[-79.13441,43.16507],[-79.13442,43.16534],[-79.13444,43.16558],[-79.13448,43.1669],[-79.13451,43.16804],[-79.13456,43.16971],[-79.13459,43.1708],[-79.13465,43.17259],[-79.13471,43.17466],[-79.13487,43.18007]],[[-79.13527,43.19509],[-79.13538,43.19886]],[[-79.135,43.18567],[-79.13501,43.18637],[-79.13504,43.1876]],[[-79.13409,43.15357],[-79.13408,43.15509]],[[-79.13495,43.1838],[-79.13499,43.18536]],[[-79.13504,43.1876],[-79.13509,43.18899]],[[-79.13509,43.18899],[-79.13514,43.1907]],[[-79.13588,43.2206],[-79.13592,43.22157],[-79.13592,43.22168],[-79.13592,43.22173],[-79.13593,43.22186],[-79.13594,43.22217],[-79.13598,43.2233],[-79.13603,43.22517],[-79.13604,43.22526],[-79.13604,43.22534],[-79.13604,43.2254],[-79.13614,43.22772],[-79.13621,43.2291],[-79.13624,43.22965],[-79.13631,43.23106],[-79.13637,43.23232],[-79.13641,43.23305],[-79.13641,43.2331],[-79.13642,43.23317]],[[-79.13556,43.20463],[-79.13556,43.20468],[-79.13556,43.20475],[-79.13556,43.20483]],[[-79.13408,43.15337],[-79.13408,43.15341],[-79.13409,43.15357]],[[-79.13487,43.18007],[-79.13491,43.18188],[-79.13491,43.18191],[-79.13495,43.1838]],[[-79.13578,43.2177],[-79.13583,43.21921],[-79.13588,43.2205],[-79.13588,43.2206]],[[-79.13538,43.19886],[-79.13541,43.19977],[-79.13541,43.20058],[-79.13542,43.2009],[-79.13547,43.20266]],[[-79.13517,43.21193],[-79.13528,43.21201],[-79.13539,43.21211],[-79.13542,43.21213],[-79.13547,43.21218],[-79.1356,43.21229],[-79.13564,43.21234],[-79.1357,43.21242],[-79.13576,43.21257]],[[-79.1356,43.2057],[-79.1356,43.20588],[-79.13562,43.20663],[-79.13569,43.20932],[-79.1357,43.20991],[-79.13572,43.21021]],[[-79.13518,43.19219],[-79.13524,43.19421],[-79.13527,43.19509]],[[-79.13514,43.1907],[-79.13518,43.19219]],[[-79.13417,43.15744],[-79.13427,43.15957],[-79.13432,43.16132],[-79.13436,43.16281],[-79.13437,43.1631],[-79.1344,43.16419],[-79.13441,43.16507]],[[-79.13572,43.21021],[-79.1357,43.21033],[-79.13571,43.21043],[-79.13574,43.21051],[-79.13583,43.21058],[-79.13592,43.21068],[-79.13595,43.21074],[-79.13596,43.2108]],[[-79.13622,43.21068],[-79.13605,43.2106],[-79.13598,43.21056],[-79.13588,43.21049],[-79.13581,43.21042],[-79.13577,43.21034],[-79.13572,43.21021]],[[-79.13576,43.21257],[-79.13578,43.21278],[-79.13578,43.21282],[-79.13578,43.21319],[-79.13578,43.21346],[-79.13578,43.21489],[-79.13578,43.21501],[-79.13578,43.2161],[-79.13578,43.21614],[-79.13578,43.2177]],[[-79.13556,43.20483],[-79.13559,43.20561]],[[-79.13559,43.20561],[-79.1356,43.2057]]]}},{"type":"Feature","properties":{"nom":"Concession 7","genre":"concession"},"geometry":{"type":"MultiLineString","coordinates":[[[-79.14796,43.21929],[-79.14798,43.21943]],[[-79.14798,43.21943],[-79.1481,43.22102],[-79.14811,43.22114],[-79.14818,43.22199]],[[-79.14748,43.21167],[-79.14749,43.21178],[-79.14759,43.21349],[-79.14764,43.21448],[-79.14769,43.21537]],[[-79.1478,43.21731],[-79.14796,43.21923],[-79.14796,43.21929]],[[-79.14769,43.21537],[-79.1478,43.21731]],[[-79.14822,43.22297],[-79.14824,43.22331],[-79.14838,43.22495]],[[-79.14662,43.20308],[-79.14673,43.20316],[-79.14674,43.20317],[-79.14691,43.20331],[-79.14701,43.20341],[-79.14706,43.2035],[-79.1471,43.2036],[-79.14713,43.2037],[-79.14715,43.20391],[-79.14717,43.20418],[-79.14717,43.20426],[-79.14719,43.20466],[-79.14719,43.20485],[-79.1472,43.2049],[-79.14725,43.20635],[-79.14726,43.20706],[-79.14729,43.20781],[-79.1473,43.20813],[-79.14737,43.20972]],[[-79.14737,43.20972],[-79.14748,43.21167]],[[-79.14824,43.22268],[-79.14822,43.22297]],[[-79.14818,43.22199],[-79.14824,43.22268]]]}},{"type":"Feature","properties":{"nom":"Concession 7 Road","genre":"concession"},"geometry":{"type":"MultiLineString","coordinates":[[[-79.14592,43.17961],[-79.14601,43.18112],[-79.14602,43.18137],[-79.14604,43.18162],[-79.14614,43.1834],[-79.14615,43.18348],[-79.14625,43.18522],[-79.14636,43.18721],[-79.14647,43.18903],[-79.14657,43.19074],[-79.14658,43.19082],[-79.14659,43.191],[-79.14664,43.19177],[-79.14667,43.1924],[-79.14672,43.1932],[-79.14678,43.1948]],[[-79.14504,43.16474],[-79.14521,43.16804],[-79.14548,43.17203],[-79.14554,43.17305],[-79.1456,43.17412],[-79.14564,43.1748],[-79.14567,43.17536],[-79.1457,43.1759],[-79.14573,43.17642],[-79.14575,43.17663],[-79.14576,43.17692],[-79.14579,43.17733],[-79.14579,43.17738],[-79.1458,43.17764],[-79.14592,43.17961]],[[-79.14678,43.1948],[-79.14688,43.19727],[-79.1469,43.19795],[-79.14692,43.19841],[-79.14698,43.19982],[-79.14704,43.20123],[-79.14705,43.20145],[-79.14709,43.20159],[-79.14715,43.20168],[-79.14724,43.20177],[-79.14741,43.2019]],[[-79.14464,43.15693],[-79.14464,43.15702],[-79.14467,43.1576],[-79.14477,43.1597],[-79.14499,43.1641],[-79.14504,43.16474]],[[-79.14741,43.2019],[-79.14771,43.20204],[-79.14787,43.20209]]]}},{"type":"Feature","properties":{"nom":"Line 1","genre":"ligne"},"geometry":{"type":"MultiLineString","coordinates":[[[-79.15713,43.22485],[-79.1563,43.22486],[-79.15451,43.22488],[-79.15287,43.2249]],[[-79.161,43.2242],[-79.15926,43.22472]],[[-79.15887,43.2248],[-79.15863,43.22483],[-79.15843,43.22483],[-79.15824,43.22483],[-79.15713,43.22485]],[[-79.15926,43.22472],[-79.1591,43.22477],[-79.15887,43.2248]],[[-79.09072,43.22619],[-79.09038,43.2262],[-79.08907,43.22622]],[[-79.09705,43.22607],[-79.09696,43.22608],[-79.09621,43.22609]],[[-79.15261,43.22485],[-79.15143,43.22488],[-79.15032,43.22491],[-79.14996,43.22492],[-79.14838,43.22495],[-79.14557,43.22501]],[[-79.10366,43.22594],[-79.10309,43.22595],[-79.10247,43.22597],[-79.1014,43.22599]],[[-79.09232,43.22616],[-79.09198,43.22617],[-79.09187,43.22617]],[[-79.08907,43.22622],[-79.0886,43.22623],[-79.08812,43.22624],[-79.08766,43.22625],[-79.08753,43.22625],[-79.08717,43.22626]],[[-79.09985,43.22602],[-79.09954,43.22603],[-79.09926,43.22603],[-79.09832,43.22605]],[[-79.15287,43.2249],[-79.15261,43.22485]],[[-79.0717,43.22671],[-79.07057,43.22674]],[[-79.10818,43.22584],[-79.10812,43.22584],[-79.10788,43.22585],[-79.10695,43.22587]],[[-79.09621,43.22609],[-79.09608,43.22609]],[[-79.08542,43.22629],[-79.07917,43.22648]],[[-79.11096,43.22578],[-79.10886,43.22583],[-79.10818,43.22584]],[[-79.08558,43.22629],[-79.0855,43.22629]],[[-79.1014,43.22599],[-79.10049,43.22601],[-79.10046,43.22601]],[[-79.07917,43.22648],[-79.07865,43.2265],[-79.07851,43.2265]],[[-79.10046,43.22601],[-79.09985,43.22602]],[[-79.14557,43.22501],[-79.14473,43.22504]],[[-79.11148,43.22577],[-79.11096,43.22578]],[[-79.08717,43.22626],[-79.08558,43.22629]],[[-79.09187,43.22617],[-79.0916,43.22617],[-79.09094,43.22619],[-79.09072,43.22619]],[[-79.07851,43.2265],[-79.0777,43.22653],[-79.07587,43.22658],[-79.07491,43.22661],[-79.07453,43.22662],[-79.0717,43.22671]],[[-79.09608,43.22609],[-79.09593,43.22609],[-79.09583,43.2261],[-79.09496,43.22611],[-79.09433,43.22612],[-79.09368,43.22614],[-79.09282,43.22615],[-79.09237,43.22616],[-79.09232,43.22616]],[[-79.11705,43.22566],[-79.117,43.22566],[-79.11396,43.22572]],[[-79.14473,43.22504],[-79.13883,43.22518],[-79.13829,43.2252],[-79.13805,43.2252],[-79.1377,43.22521],[-79.13617,43.22525],[-79.13604,43.22526]],[[-79.0855,43.22629],[-79.08542,43.22629],[-79.08542,43.22629]],[[-79.11758,43.22565],[-79.1174,43.22566],[-79.11705,43.22566]],[[-79.07057,43.22674],[-79.06729,43.22684]],[[-79.10695,43.22587],[-79.10677,43.22587],[-79.10658,43.22588],[-79.10532,43.2259],[-79.10482,43.22591],[-79.10468,43.22592],[-79.10397,43.22593],[-79.10366,43.22594]],[[-79.06729,43.22684],[-79.06724,43.22684],[-79.06691,43.22685],[-79.06266,43.22698],[-79.05907,43.22709],[-79.05891,43.22709],[-79.05869,43.2271]],[[-79.09832,43.22605],[-79.09816,43.22605],[-79.09763,43.22606],[-79.09705,43.22607]],[[-79.11396,43.22572],[-79.11148,43.22577]]]}},{"type":"Feature","properties":{"nom":"Line 1 Street","genre":"ligne"},"geometry":{"type":"MultiLineString","coordinates":[[[-79.13604,43.22526],[-79.13593,43.22526],[-79.13236,43.22532],[-79.13146,43.22534],[-79.12958,43.22538]],[[-79.12958,43.22538],[-79.12764,43.22542],[-79.12733,43.22543],[-79.12717,43.22543]],[[-79.12656,43.22545],[-79.12624,43.22545]],[[-79.12717,43.22543],[-79.12656,43.22545]],[[-79.12624,43.22545],[-79.12454,43.22549],[-79.12442,43.2255]]]}},{"type":"Feature","properties":{"nom":"Line 2","genre":"ligne"},"geometry":{"type":"MultiLineString","coordinates":[[[-79.15873,43.21696],[-79.15477,43.21708]],[[-79.1606,43.2169],[-79.15873,43.21696]],[[-79.15477,43.21708],[-79.15307,43.21714]],[[-79.06755,43.21921],[-79.06699,43.21922],[-79.06638,43.21924],[-79.06597,43.21924],[-79.06497,43.21926],[-79.06372,43.21929],[-79.06304,43.2193],[-79.06202,43.21932],[-79.0598,43.21936],[-79.05923,43.21938]],[[-79.07136,43.21914],[-79.06779,43.21921],[-79.06772,43.21921],[-79.06755,43.21921]],[[-79.15307,43.21714],[-79.1478,43.21731]],[[-79.07683,43.219],[-79.07664,43.21902]],[[-79.13084,43.21777],[-79.12996,43.21778],[-79.12991,43.21778],[-79.12898,43.21779],[-79.12832,43.2178],[-79.12815,43.21777]],[[-79.07261,43.21912],[-79.07259,43.21912],[-79.07236,43.21912],[-79.07136,43.21914]],[[-79.13578,43.2177],[-79.13224,43.21775],[-79.13212,43.21775],[-79.13084,43.21777]],[[-79.07664,43.21902],[-79.07588,43.21904],[-79.0754,43.21905],[-79.07346,43.2191],[-79.07261,43.21912]],[[-79.1279,43.21763],[-79.12797,43.21767],[-79.12815,43.21777]],[[-79.1478,43.21731],[-79.14543,43.21738],[-79.14501,43.2174],[-79.14467,43.21741],[-79.14464,43.21741],[-79.14417,43.21743],[-79.14321,43.21746],[-79.14272,43.21747],[-79.14147,43.21752],[-79.14039,43.21755],[-79.1368,43.21767],[-79.13578,43.2177]]]}},{"type":"Feature","properties":{"nom":"Line 2 Road","genre":"ligne"},"geometry":{"type":"MultiLineString","coordinates":[[[-79.1111,43.21818],[-79.11063,43.21819],[-79.10824,43.21825],[-79.10768,43.21826],[-79.1073,43.21827],[-79.10712,43.21827],[-79.10668,43.21828],[-79.1062,43.21829],[-79.10615,43.21829],[-79.10545,43.21831],[-79.10507,43.21832],[-79.10348,43.21835],[-79.10232,43.21838],[-79.10181,43.21839],[-79.10166,43.21839],[-79.09987,43.21843],[-79.09792,43.21848],[-79.09787,43.21848],[-79.09778,43.21847],[-79.09719,43.21849],[-79.0961,43.21851],[-79.09581,43.21852],[-79.09534,43.21853],[-79.09504,43.21854],[-79.09462,43.21855],[-79.09375,43.21857],[-79.09327,43.21858],[-79.09165,43.21862],[-79.08872,43.21869],[-79.08607,43.21875],[-79.08507,43.21877]],[[-79.12098,43.2179],[-79.12079,43.21791],[-79.11856,43.21798],[-79.11471,43.21811],[-79.1135,43.21816],[-79.11345,43.21816],[-79.11317,43.21817],[-79.1111,43.21818]],[[-79.08507,43.21877],[-79.08198,43.21884],[-79.08167,43.21885],[-79.07953,43.21891],[-79.07867,43.21894],[-79.07772,43.21897],[-79.07742,43.21898],[-79.0772,43.21899],[-79.07683,43.219]]]}},{"type":"Feature","properties":{"nom":"Line 3 Road","genre":"ligne"},"geometry":{"type":"MultiLineString","coordinates":[[[-79.15995,43.20941],[-79.15329,43.20957],[-79.14737,43.20972]],[[-79.12256,43.21047],[-79.12194,43.21049]],[[-79.13038,43.21032],[-79.12625,43.2104]],[[-79.10612,43.21084],[-79.10578,43.21085],[-79.1057,43.21085],[-79.10542,43.21086],[-79.10519,43.21086],[-79.10482,43.21087],[-79.10432,43.21088],[-79.10241,43.21092]],[[-79.08475,43.21134],[-79.08452,43.21135],[-79.08429,43.21135],[-79.08311,43.21138],[-79.08256,43.21139],[-79.08111,43.21143],[-79.0809,43.21143],[-79.08063,43.21144],[-79.08061,43.21144]],[[-79.13572,43.21021],[-79.13582,43.2102],[-79.13624,43.21018]],[[-79.09913,43.21099],[-79.0988,43.211]],[[-79.11955,43.21053],[-79.11936,43.21055]],[[-79.06136,43.21185],[-79.06122,43.21185]],[[-79.13171,43.21028],[-79.13146,43.21029],[-79.13038,43.21032]],[[-79.09074,43.21119],[-79.09043,43.2112]],[[-79.12194,43.21049],[-79.12046,43.21051]],[[-79.11073,43.21075],[-79.1104,43.21076],[-79.11017,43.21076]],[[-79.08017,43.21145],[-79.08002,43.21145],[-79.07994,43.21145],[-79.07877,43.21148],[-79.07868,43.21148],[-79.07784,43.2115],[-79.07719,43.21151],[-79.07597,43.21154],[-79.0753,43.21156],[-79.07518,43.21156],[-79.07514,43.21156],[-79.07447,43.21158],[-79.07384,43.21159],[-79.07352,43.2116],[-79.07303,43.21161],[-79.07257,43.21162],[-79.07178,43.21163],[-79.07106,43.21164]],[[-79.1387,43.21006],[-79.13826,43.21016],[-79.13804,43.2102],[-79.1379,43.21021],[-79.13778,43.21019],[-79.13767,43.21013],[-79.13757,43.21007]],[[-79.09757,43.21102],[-79.09466,43.2111],[-79.09416,43.21111],[-79.09393,43.21111],[-79.09376,43.21112],[-79.09338,43.21113],[-79.09222,43.21116],[-79.09089,43.21119],[-79.09074,43.21119]],[[-79.11674,43.21062],[-79.11663,43.21062],[-79.11524,43.21065],[-79.11145,43.21074],[-79.11073,43.21075]],[[-79.06152,43.21184],[-79.06136,43.21185]],[[-79.13572,43.21021],[-79.13559,43.2102],[-79.13516,43.21022],[-79.13493,43.21022],[-79.13359,43.21023],[-79.13242,43.21026],[-79.13204,43.21027],[-79.13171,43.21028]],[[-79.14737,43.20972],[-79.1387,43.21006]],[[-79.12046,43.21051],[-79.12031,43.21052]],[[-79.12408,43.21044],[-79.12256,43.21047]],[[-79.07106,43.21164],[-79.07052,43.21165],[-79.06895,43.21169],[-79.06496,43.21177],[-79.06152,43.21184]],[[-79.11017,43.21076],[-79.11013,43.21076],[-79.10867,43.21079]],[[-79.11936,43.21055],[-79.11821,43.21058],[-79.1169,43.21062],[-79.11674,43.21062]],[[-79.10241,43.21092],[-79.10113,43.21095]],[[-79.08869,43.21124],[-79.08663,43.21129],[-79.08532,43.21133],[-79.08475,43.21134]],[[-79.0988,43.211],[-79.09757,43.21102]],[[-79.12625,43.2104],[-79.12462,43.21043],[-79.12408,43.21044]],[[-79.10867,43.21079],[-79.10763,43.21081],[-79.10644,43.21084],[-79.1062,43.21084],[-79.10612,43.21084]],[[-79.08061,43.21144],[-79.08049,43.21144],[-79.08019,43.21145],[-79.08017,43.21145]],[[-79.12031,43.21052],[-79.12,43.21052],[-79.11955,43.21053]],[[-79.09043,43.2112],[-79.0888,43.21124],[-79.08869,43.21124]],[[-79.10113,43.21095],[-79.10095,43.21095],[-79.10038,43.21096],[-79.09913,43.21099]],[[-79.16017,43.2094],[-79.15995,43.20941]]]}},{"type":"Feature","properties":{"nom":"Line 4 Road","genre":"ligne"},"geometry":{"type":"MultiLineString","coordinates":[[[-79.14787,43.20209],[-79.14807,43.20213],[-79.14825,43.20216],[-79.14829,43.20216],[-79.14851,43.20216],[-79.149,43.20214],[-79.14919,43.20214],[-79.14964,43.20212],[-79.15016,43.20211],[-79.1502,43.20211],[-79.15108,43.20208],[-79.15157,43.20207],[-79.15171,43.20206],[-79.15202,43.20205],[-79.15226,43.20205],[-79.15264,43.20203],[-79.15363,43.20201],[-79.15372,43.202],[-79.15651,43.20192],[-79.15945,43.20183],[-79.15949,43.20183],[-79.15953,43.20184],[-79.15957,43.20184],[-79.15961,43.20185],[-79.15965,43.20187],[-79.15968,43.20188]],[[-79.10147,43.20343],[-79.10125,43.20343],[-79.10085,43.20343]],[[-79.11639,43.20312],[-79.11596,43.20313],[-79.11298,43.20321],[-79.11178,43.20324]],[[-79.10085,43.20343],[-79.0997,43.20346],[-79.09875,43.20348],[-79.09849,43.20348]],[[-79.09714,43.20352],[-79.09705,43.20352]],[[-79.11168,43.20323],[-79.11029,43.20327]],[[-79.14741,43.2019],[-79.14699,43.20217],[-79.14677,43.20221],[-79.14647,43.20222],[-79.14601,43.20224],[-79.14514,43.20227],[-79.14249,43.20238],[-79.14134,43.20243],[-79.14115,43.20243],[-79.13812,43.20256],[-79.13767,43.20258],[-79.13616,43.20263],[-79.13589,43.20264],[-79.13547,43.20266]],[[-79.09849,43.20348],[-79.09721,43.20351],[-79.09714,43.20352]],[[-79.11651,43.20312],[-79.11639,43.20312]],[[-79.08764,43.20383],[-79.08446,43.20393]],[[-79.11178,43.20324],[-79.11168,43.20323]],[[-79.09493,43.20358],[-79.09214,43.20366],[-79.09144,43.20368]],[[-79.09144,43.20368],[-79.09068,43.20371],[-79.08764,43.20383]],[[-79.1203,43.20302],[-79.11953,43.20304]],[[-79.11953,43.20304],[-79.11935,43.20305],[-79.1185,43.20307],[-79.11826,43.20307],[-79.11724,43.2031]],[[-79.11029,43.20327],[-79.10941,43.20329],[-79.10864,43.2033],[-79.10857,43.2033],[-79.10147,43.20343]],[[-79.09705,43.20352],[-79.09688,43.20352],[-79.09586,43.20355],[-79.09493,43.20358]],[[-79.07076,43.20419],[-79.06772,43.2042],[-79.05833,43.20438],[-79.05786,43.2044],[-79.05769,43.20442]],[[-79.11724,43.2031],[-79.11705,43.2031],[-79.11651,43.20312]],[[-79.124,43.20293],[-79.12364,43.20294],[-79.12156,43.203],[-79.1203,43.20302]]]}},{"type":"Feature","properties":{"nom":"Line 5 Road","genre":"ligne"},"geometry":{"type":"MultiLineString","coordinates":[[[-79.09682,43.19606],[-79.09674,43.19606]],[[-79.09074,43.19613],[-79.09052,43.19613]],[[-79.09282,43.19611],[-79.09213,43.19611]],[[-79.11552,43.19559],[-79.11435,43.19561]],[[-79.10177,43.19592],[-79.09831,43.19602],[-79.09754,43.19604]],[[-79.12331,43.19544],[-79.12316,43.19544],[-79.11951,43.19551],[-79.11763,43.19555]],[[-79.09213,43.19611],[-79.09074,43.19613]],[[-79.11327,43.19564],[-79.11176,43.19567],[-79.11157,43.19568]],[[-79.09614,43.19607],[-79.09439,43.19609]],[[-79.11763,43.19555],[-79.11552,43.19559]],[[-79.08412,43.1962],[-79.08357,43.19622],[-79.07893,43.19633],[-79.07771,43.19636],[-79.07736,43.19637],[-79.07665,43.19639]],[[-79.09674,43.19606],[-79.0963,43.19607]],[[-79.13527,43.19509],[-79.13486,43.19511],[-79.12792,43.19531],[-79.12605,43.19536],[-79.12331,43.19544]],[[-79.09754,43.19604],[-79.09702,43.19605]],[[-79.07665,43.19639],[-79.07587,43.19641],[-79.07561,43.19641],[-79.07119,43.19652],[-79.07045,43.19654]],[[-79.09689,43.19606],[-79.09682,43.19606]],[[-79.14144,43.19492],[-79.14079,43.19494],[-79.13688,43.19505],[-79.13527,43.19509]],[[-79.0963,43.19607],[-79.09614,43.19607]],[[-79.10423,43.19585],[-79.10177,43.19592]],[[-79.09702,43.19605],[-79.097,43.19605]],[[-79.11356,43.19563],[-79.11327,43.19564]],[[-79.11157,43.19568],[-79.11136,43.19568],[-79.11026,43.1957],[-79.10869,43.19573]],[[-79.097,43.19605],[-79.09694,43.19606],[-79.09689,43.19606]],[[-79.09052,43.19613],[-79.08412,43.1962]],[[-79.09439,43.19609],[-79.09437,43.19609],[-79.09282,43.19611]],[[-79.10869,43.19573],[-79.1067,43.19578],[-79.10562,43.19581],[-79.10423,43.19585]],[[-79.14678,43.1948],[-79.14346,43.19486]],[[-79.11435,43.19561],[-79.11356,43.19563]],[[-79.1416,43.19492],[-79.14144,43.19492]],[[-79.14346,43.19486],[-79.14335,43.19486],[-79.14163,43.19491],[-79.1416,43.19492]]]}},{"type":"Feature","properties":{"nom":"Line 6 Road","genre":"ligne"},"geometry":{"type":"MultiLineString","coordinates":[[[-79.13194,43.18765],[-79.13174,43.18764]],[[-79.11236,43.18806],[-79.11209,43.18808]],[[-79.09706,43.1884],[-79.09664,43.18841],[-79.09649,43.18842]],[[-79.13504,43.1876],[-79.13194,43.18765]],[[-79.12303,43.18776],[-79.11927,43.18787]],[[-79.08692,43.18863],[-79.08473,43.18867],[-79.084,43.18869],[-79.08372,43.1887]],[[-79.08372,43.1887],[-79.08087,43.18876],[-79.07956,43.18879],[-79.07934,43.18879],[-79.07898,43.1888],[-79.07816,43.18882],[-79.07787,43.18883],[-79.0775,43.18884],[-79.07724,43.18884]],[[-79.14636,43.18721],[-79.14249,43.18734]],[[-79.09939,43.18835],[-79.09937,43.18835],[-79.09924,43.18836],[-79.09885,43.18836]],[[-79.14249,43.18734],[-79.13504,43.1876]],[[-79.10264,43.18828],[-79.10206,43.18829],[-79.1014,43.18831],[-79.10089,43.18832],[-79.10049,43.18833],[-79.09939,43.18835]],[[-79.07014,43.18653],[-79.06937,43.18655],[-79.06874,43.18657],[-79.06808,43.18659],[-79.06767,43.18661],[-79.067,43.18663],[-79.06658,43.18664],[-79.06603,43.18665],[-79.06459,43.1867],[-79.0644,43.1867]],[[-79.09649,43.18842],[-79.09594,43.18843],[-79.09591,43.18843]],[[-79.10316,43.18827],[-79.10264,43.18828]],[[-79.0899,43.18856],[-79.08798,43.1886]],[[-79.09855,43.18837],[-79.09841,43.18837],[-79.09828,43.18838],[-79.0979,43.18838]],[[-79.0644,43.1867],[-79.06302,43.18674],[-79.05967,43.18684],[-79.05937,43.18685],[-79.05927,43.18686],[-79.05902,43.18686],[-79.05854,43.18688],[-79.05763,43.1869]],[[-79.1066,43.18819],[-79.1035,43.18826]],[[-79.09738,43.1884],[-79.09706,43.1884]],[[-79.09885,43.18836],[-79.09855,43.18837]],[[-79.08798,43.1886],[-79.08692,43.18863]],[[-79.1035,43.18826],[-79.10316,43.18827]],[[-79.10883,43.18815],[-79.10863,43.18815],[-79.10802,43.18816],[-79.10751,43.18818],[-79.10725,43.18818],[-79.1066,43.18819]],[[-79.07724,43.18884],[-79.07641,43.18886],[-79.07503,43.18889],[-79.07439,43.18891],[-79.07366,43.18892],[-79.07243,43.18895],[-79.07195,43.18896],[-79.07062,43.18899],[-79.07022,43.189]],[[-79.0979,43.18838],[-79.09738,43.1884]],[[-79.11352,43.18803],[-79.11294,43.18805]],[[-79.11209,43.18808],[-79.1101,43.18812],[-79.10935,43.18814],[-79.10883,43.18815]],[[-79.09077,43.18854],[-79.0899,43.18856]],[[-79.11294,43.18805],[-79.11236,43.18806]],[[-79.13174,43.18764],[-79.12946,43.18768],[-79.12303,43.18776]],[[-79.09238,43.18851],[-79.09077,43.18854]],[[-79.11927,43.18787],[-79.11857,43.18789],[-79.11352,43.18803]],[[-79.09591,43.18843],[-79.09238,43.18851]]]}},{"type":"Feature","properties":{"nom":"Line 7 Road","genre":"ligne"},"geometry":{"type":"MultiLineString","coordinates":[[[-79.15679,43.17936],[-79.15621,43.17935],[-79.15501,43.17937],[-79.15362,43.1794],[-79.15351,43.1794],[-79.15242,43.17944],[-79.15125,43.17947],[-79.14995,43.17951],[-79.14859,43.17955],[-79.14767,43.17957],[-79.14711,43.17959],[-79.14592,43.17961]],[[-79.14592,43.17961],[-79.14531,43.17963],[-79.14512,43.17964],[-79.14481,43.17965],[-79.14312,43.17973],[-79.13487,43.18007]],[[-79.11388,43.18061],[-79.11195,43.18067]],[[-79.10139,43.18086],[-79.09653,43.18092]],[[-79.11654,43.18052],[-79.11587,43.18054]],[[-79.10979,43.18075],[-79.10971,43.18075]],[[-79.09629,43.18093],[-79.09479,43.18095]],[[-79.09467,43.18095],[-79.09341,43.18096]],[[-79.11587,43.18054],[-79.11524,43.18056]],[[-79.08783,43.18103],[-79.08606,43.18106],[-79.08332,43.1811]],[[-79.11195,43.18067],[-79.11052,43.18072]],[[-79.10453,43.18081],[-79.10139,43.18086]],[[-79.09653,43.18092],[-79.09629,43.18093]],[[-79.11524,43.18056],[-79.11435,43.18059]],[[-79.13487,43.18007],[-79.12793,43.18021],[-79.12764,43.18021],[-79.12264,43.18031]],[[-79.11052,43.18072],[-79.10979,43.18075]],[[-79.09479,43.18095],[-79.09467,43.18095]],[[-79.11435,43.18059],[-79.11388,43.18061]],[[-79.07944,43.1812],[-79.06995,43.18145]],[[-79.08332,43.1811],[-79.07944,43.1812]],[[-79.10971,43.18075],[-79.10884,43.18076]],[[-79.09263,43.18097],[-79.08783,43.18103]],[[-79.12264,43.18031],[-79.11654,43.18052]],[[-79.10884,43.18076],[-79.10453,43.18081]],[[-79.09341,43.18096],[-79.09263,43.18097]]]}},{"type":"Feature","properties":{"nom":"Line 8","genre":"ligne"},"geometry":{"type":"MultiLineString","coordinates":[[[-79.09285,43.17341],[-79.09195,43.17342]],[[-79.091,43.17343],[-79.08952,43.17345],[-79.08294,43.17352]],[[-79.09795,43.17337],[-79.09725,43.17337],[-79.09643,43.17338],[-79.09605,43.17338]],[[-79.09195,43.17342],[-79.0919,43.17342],[-79.09185,43.17342]],[[-79.05889,43.17328],[-79.05873,43.17328],[-79.05861,43.17328]],[[-79.08294,43.17352],[-79.08015,43.17361],[-79.077,43.17372]],[[-79.06286,43.17323],[-79.06119,43.17325]],[[-79.11083,43.17322],[-79.10986,43.17325]],[[-79.077,43.17372],[-79.074,43.17379],[-79.06979,43.17393]],[[-79.06119,43.17325],[-79.06116,43.17325],[-79.05889,43.17328]],[[-79.09185,43.17342],[-79.09118,43.17343],[-79.091,43.17343]],[[-79.10905,43.17327],[-79.10216,43.17336]],[[-79.06806,43.17319],[-79.06286,43.17323]],[[-79.10216,43.17336],[-79.09814,43.17337]],[[-79.09814,43.17337],[-79.09801,43.17337],[-79.09795,43.17337]],[[-79.12499,43.17275],[-79.12389,43.17275],[-79.12223,43.17278]],[[-79.09605,43.17338],[-79.09599,43.17338],[-79.09572,43.17338],[-79.09563,43.17338],[-79.09516,43.17339],[-79.09491,43.17339],[-79.09452,43.17339],[-79.09421,43.1734],[-79.09398,43.1734],[-79.09374,43.1734],[-79.09304,43.17341],[-79.09285,43.17341]],[[-79.06977,43.17317],[-79.06806,43.17319]],[[-79.10986,43.17325],[-79.10905,43.17327]]]}},{"type":"Feature","properties":{"nom":"Line 8 Road","genre":"ligne"},"geometry":{"type":"MultiLineString","coordinates":[[[-79.14548,43.17203],[-79.14433,43.17209],[-79.14229,43.17221],[-79.14172,43.17224]],[[-79.14875,43.17194],[-79.14842,43.17194],[-79.14548,43.17203]]]}},{"type":"Feature","properties":{"nom":"Line 9","genre":"ligne"},"geometry":{"type":"MultiLineString","coordinates":[[[-79.11443,43.1656],[-79.11144,43.16573],[-79.11033,43.16576],[-79.10889,43.1658]]]}},{"type":"Feature","properties":{"nom":"Line 9 Road","genre":"ligne"},"geometry":{"type":"MultiLineString","coordinates":[[[-79.07497,43.1662],[-79.07493,43.16621],[-79.07436,43.16622]],[[-79.0868,43.16601],[-79.08655,43.16601]],[[-79.10101,43.16586],[-79.10009,43.16587]],[[-79.07429,43.16622],[-79.07321,43.16623],[-79.07201,43.16624]],[[-79.07436,43.16622],[-79.07429,43.16622]],[[-79.09592,43.16592],[-79.0931,43.16595]],[[-79.08655,43.16601],[-79.08641,43.16602],[-79.08614,43.16602],[-79.08282,43.16605]],[[-79.07201,43.16624],[-79.07003,43.16626],[-79.06987,43.16628],[-79.06983,43.1663],[-79.0698,43.16633],[-79.06979,43.16635]],[[-79.07731,43.16616],[-79.07674,43.16617],[-79.07671,43.16617],[-79.07646,43.16618],[-79.07558,43.16619],[-79.07497,43.1662]],[[-79.0931,43.16595],[-79.09249,43.16595],[-79.09037,43.16598],[-79.0894,43.16599],[-79.08932,43.16599],[-79.08911,43.16599],[-79.08865,43.16599]],[[-79.10009,43.16587],[-79.09991,43.16587],[-79.0983,43.16589],[-79.09592,43.16592]],[[-79.08865,43.16599],[-79.08696,43.16601],[-79.0868,43.16601]],[[-79.08282,43.16605],[-79.08095,43.16609],[-79.07882,43.16613],[-79.07811,43.16614],[-79.07741,43.16616],[-79.07731,43.16616]]]}}]}