{"type":"FeatureCollection","features":[{"type":"Feature","properties":{"nom":"Niagara-on-the-Lake","superficie_km2":134,"population_2021":19088},"geometry":{"type":"Polygon","coordinates":[[[-79.08525,43.26237],[-79.0848,43.26226],[-79.08351,43.26218],[-79.07765,43.26214],[-79.0773,43.2622],[-79.07682,43.26219],[-79.07612,43.26204],[-79.07586,43.26192],[-79.07521,43.26141],[-79.07455,43.26107],[-79.07284,43.25985],[-79.0725,43.25965],[-79.07156,43.25918],[-79.07078,43.25887],[-79.07064,43.25893],[-79.07023,43.25879],[-79.06979,43.25846],[-79.0697,43.25843],[-79.06959,43.25831],[-79.06931,43.25816],[-79.06892,43.25805],[-79.06649,43.25763],[-79.06642,43.25751],[-79.06635,43.25749],[-79.06624,43.25747],[-79.06619,43.25754],[-79.06614,43.25751],[-79.06618,43.25746],[-79.06485,43.25724],[-79.06478,43.2573],[-79.06474,43.25728],[-79.0648,43.25722],[-79.0647,43.2572],[-79.06463,43.25732],[-79.06458,43.25731],[-79.06469,43.2572],[-79.06412,43.2571],[-79.06395,43.25709],[-79.06394,43.25717],[-79.06386,43.25714],[-79.06391,43.25709],[-79.06365,43.25706],[-79.06321,43.25672],[-79.0631,43.25667],[-79.063,43.25671],[-79.06292,43.25662],[-79.06299,43.25652],[-79.06281,43.25646],[-79.06284,43.25643],[-79.0628,43.25641],[-79.06275,43.25645],[-79.06276,43.25639],[-79.0627,43.2564],[-79.06157,43.25553],[-79.06149,43.25538],[-79.06165,43.25526],[-79.06178,43.25526],[-79.06308,43.25619],[-79.06339,43.25594],[-79.06278,43.25553],[-79.06286,43.2554],[-79.06282,43.25538],[-79.06269,43.25551],[-79.06267,43.25548],[-79.06286,43.2553],[-79.06284,43.25527],[-79.06267,43.25542],[-79.06239,43.25522],[-79.06235,43.25512],[-79.06238,43.25496],[-79.0628,43.25457],[-79.06285,43.25431],[-79.06278,43.25419],[-79.06259,43.25419],[-79.06206,43.25454],[-79.0614,43.25507],[-79.06126,43.25509],[-79.06131,43.25493],[-79.06092,43.2547],[-79.06088,43.25472],[-79.06033,43.25414],[-79.06046,43.25394],[-79.06041,43.25393],[-79.06031,43.25405],[-79.06026,43.25404],[-79.06007,43.25384],[-79.06002,43.25363],[-79.05983,43.25372],[-79.05978,43.25366],[-79.05992,43.25356],[-79.05887,43.25263],[-79.05869,43.25236],[-79.05856,43.25227],[-79.05855,43.25198],[-79.05821,43.25117],[-79.05812,43.24962],[-79.05813,43.24884],[-79.05803,43.24774],[-79.05822,43.24739],[-79.05827,43.24659],[-79.05837,43.24608],[-79.05831,43.24549],[-79.05846,43.24494],[-79.05855,43.2443],[-79.05852,43.24396],[-79.05858,43.2435],[-79.05876,43.24297],[-79.05882,43.24247],[-79.05911,43.24175],[-79.0592,43.24127],[-79.05949,43.24038],[-79.05965,43.23929],[-79.05964,43.23906],[-79.05976,43.23859],[-79.05985,43.2376],[-79.06,43.23675],[-79.05993,43.23599],[-79.05994,43.23545],[-79.05988,43.23493],[-79.05958,43.23495],[-79.05963,43.23553],[-79.0595,43.23556],[-79.0595,43.2355],[-79.05956,43.23549],[-79.05953,43.23498],[-79.05944,43.23498],[-79.05944,43.23491],[-79.05952,43.2349],[-79.05949,43.23434],[-79.05942,43.23431],[-79.05955,43.2343],[-79.05958,43.2349],[-79.05984,43.23489],[-79.05967,43.23428],[-79.05962,43.2335],[-79.05932,43.23202],[-79.05928,43.23156],[-79.05911,43.23101],[-79.05908,43.23064],[-79.05891,43.22991],[-79.05889,43.2296],[-79.05872,43.22921],[-79.05838,43.22802],[-79.05801,43.2271],[-79.05787,43.22654],[-79.05741,43.2256],[-79.05715,43.22493],[-79.05699,43.22423],[-79.05708,43.22336],[-79.05735,43.22187],[-79.05772,43.22117],[-79.05791,43.22057],[-79.05827,43.21995],[-79.05863,43.21887],[-79.05887,43.21857],[-79.05904,43.21816],[-79.05906,43.21773],[-79.05937,43.21686],[-79.05952,43.21666],[-79.0598,43.21534],[-79.05989,43.21519],[-79.05988,43.21491],[-79.06006,43.21404],[-79.06007,43.21365],[-79.06023,43.21311],[-79.06032,43.21252],[-79.06016,43.21161],[-79.06028,43.21061],[-79.06008,43.20997],[-79.05998,43.20902],[-79.05987,43.20859],[-79.05979,43.20847],[-79.05938,43.20821],[-79.05934,43.20811],[-79.05939,43.20784],[-79.05933,43.20759],[-79.05879,43.20665],[-79.05857,43.20649],[-79.0583,43.20617],[-79.05751,43.20542],[-79.0569,43.20494],[-79.0566,43.20484],[-79.05585,43.20405],[-79.05493,43.20342],[-79.05419,43.20301],[-79.05332,43.20231],[-79.0528,43.2018],[-79.05255,43.20128],[-79.05245,43.20084],[-79.05232,43.20059],[-79.05219,43.20019],[-79.05213,43.19975],[-79.05219,43.19925],[-79.0521,43.19883],[-79.05227,43.19734],[-79.0526,43.1965],[-79.05314,43.19463],[-79.0534,43.19407],[-79.05348,43.19361],[-79.05357,43.19336],[-79.05375,43.19313],[-79.05384,43.19288],[-79.05422,43.19224],[-79.05445,43.19165],[-79.05534,43.19014],[-79.05548,43.18978],[-79.05566,43.18955],[-79.05571,43.18939],[-79.05595,43.18904],[-79.05603,43.18861],[-79.05622,43.18837],[-79.05642,43.18792],[-79.05664,43.18762],[-79.05692,43.18696],[-79.05726,43.18651],[-79.05739,43.18598],[-79.05769,43.1853],[-79.05786,43.18433],[-79.05771,43.18329],[-79.05758,43.18301],[-79.05758,43.1827],[-79.0574,43.18227],[-79.05734,43.18201],[-79.05709,43.18161],[-79.05696,43.18118],[-79.05648,43.18068],[-79.05644,43.18043],[-79.05606,43.17961],[-79.05599,43.17913],[-79.05604,43.17846],[-79.05603,43.17823],[-79.05596,43.17822],[-79.05598,43.17813],[-79.05608,43.17815],[-79.0562,43.17769],[-79.05641,43.17723],[-79.05646,43.1768],[-79.05667,43.17629],[-79.05692,43.17589],[-79.05691,43.17539],[-79.05703,43.17515],[-79.05704,43.17437],[-79.05711,43.17409],[-79.05711,43.17236],[-79.05673,43.17136],[-79.0567,43.17108],[-79.05653,43.17081],[-79.05614,43.17037],[-79.05576,43.16977],[-79.0551,43.16924],[-79.05515,43.1691],[-79.05463,43.1688],[-79.05433,43.16854],[-79.05354,43.16751],[-79.05341,43.16755],[-79.05296,43.16684],[-79.05305,43.16681],[-79.05291,43.16654],[-79.05257,43.16605],[-79.05246,43.16573],[-79.05214,43.16561],[-79.05153,43.165],[-79.05118,43.16472],[-79.0505,43.16442],[-79.04899,43.16348],[-79.04809,43.16269],[-79.0476,43.16203],[-79.04739,43.16142],[-79.0474,43.1603],[-79.04727,43.15964],[-79.04694,43.15894],[-79.04692,43.15879],[-79.04649,43.15805],[-79.04629,43.15725],[-79.04603,43.15658],[-79.04577,43.15608],[-79.04563,43.15562],[-79.04543,43.15375],[-79.04543,43.15322],[-79.04549,43.15287],[-79.04542,43.15219],[-79.0451,43.15157],[-79.04426,43.1503],[-79.04422,43.1502],[-79.04425,43.15004],[-79.04449,43.14984],[-79.04382,43.14843],[-79.04366,43.14837],[-79.04354,43.14825],[-79.04337,43.14792],[-79.09572,43.14724],[-79.10811,43.14694],[-79.12124,43.14674],[-79.1337,43.14632],[-79.15436,43.14529],[-79.15437,43.1452],[-79.15683,43.14501],[-79.15696,43.14777],[-79.16251,43.14582],[-79.16744,43.14404],[-79.17783,43.14041],[-79.17819,43.14987],[-79.19216,43.14494],[-79.19249,43.14594],[-79.19268,43.14964],[-79.19307,43.15413],[-79.19371,43.15734],[-79.19448,43.16148],[-79.19527,43.16845],[-79.19606,43.17326],[-79.19583,43.17516],[-79.19643,43.18096],[-79.1973,43.1852],[-79.19797,43.18713],[-79.1985,43.18849],[-79.20055,43.19122],[-79.20091,43.19902],[-79.2024,43.22711],[-79.20214,43.22721],[-79.20135,43.22736],[-79.20066,43.22758],[-79.19944,43.22777],[-79.19918,43.22788],[-79.19907,43.228],[-79.19841,43.22821],[-79.19755,43.22833],[-79.1968,43.22832],[-79.19588,43.22846],[-79.19479,43.22865],[-79.19437,43.2288],[-79.19355,43.22896],[-79.19319,43.22907],[-79.19288,43.22924],[-79.19284,43.22929],[-79.19287,43.22944],[-79.19284,43.22953],[-79.19234,43.22979],[-79.19218,43.22994],[-79.19231,43.22998],[-79.19222,43.23005],[-79.19101,43.23042],[-79.19034,43.23048],[-79.1892,43.23077],[-79.18909,43.23095],[-79.18899,43.23093],[-79.18898,43.23084],[-79.18873,43.23083],[-79.18814,43.23099],[-79.18781,43.23116],[-79.18755,43.23145],[-79.18754,43.2315],[-79.18789,43.23159],[-79.18779,43.23207],[-79.18725,43.23228],[-79.18716,43.23239],[-79.18675,43.23243],[-79.18592,43.23266],[-79.18417,43.23355],[-79.18296,43.23395],[-79.18269,43.23411],[-79.18261,43.23422],[-79.18237,43.23432],[-79.1821,43.23432],[-79.18196,43.23452],[-79.18171,43.23447],[-79.18138,43.23466],[-79.18108,43.23501],[-79.18076,43.23508],[-79.18047,43.23522],[-79.18046,43.23542],[-79.18031,43.23554],[-79.17993,43.23564],[-79.1799,43.23575],[-79.17967,43.23587],[-79.17957,43.23582],[-79.17945,43.23583],[-79.17913,43.23602],[-79.17826,43.23634],[-79.17815,43.23649],[-79.17813,43.23662],[-79.17796,43.23662],[-79.17754,43.23681],[-79.17748,43.23685],[-79.17747,43.23696],[-79.17652,43.2372],[-79.17558,43.23761],[-79.17497,43.23777],[-79.17475,43.23795],[-79.1739,43.23829],[-79.17383,43.23843],[-79.17363,43.23831],[-79.17331,43.23839],[-79.17309,43.2386],[-79.17314,43.23875],[-79.17288,43.23902],[-79.17266,43.23913],[-79.1714,43.23939],[-79.17135,43.23945],[-79.17138,43.23951],[-79.17129,43.23948],[-79.17116,43.23953],[-79.17109,43.23961],[-79.1711,43.23972],[-79.17101,43.23965],[-79.17091,43.23966],[-79.16996,43.24003],[-79.16848,43.24032],[-79.16722,43.24076],[-79.16692,43.24091],[-79.16664,43.24096],[-79.16651,43.24104],[-79.16656,43.24108],[-79.16641,43.24118],[-79.1655,43.24166],[-79.16553,43.24169],[-79.16517,43.24186],[-79.16497,43.24188],[-79.16337,43.24272],[-79.16309,43.24292],[-79.16298,43.24291],[-79.16273,43.24317],[-79.16269,43.24332],[-79.16252,43.24348],[-79.16245,43.24345],[-79.16225,43.24354],[-79.162,43.24354],[-79.16193,43.24348],[-79.16185,43.24319],[-79.16184,43.24334],[-79.16188,43.24348],[-79.1618,43.24371],[-79.16162,43.24389],[-79.1614,43.24397],[-79.16124,43.24411],[-79.16102,43.24415],[-79.16084,43.24425],[-79.16064,43.24427],[-79.16042,43.24422],[-79.15998,43.24432],[-79.15879,43.24485],[-79.15844,43.24507],[-79.15824,43.24515],[-79.15794,43.24518],[-79.15718,43.24583],[-79.15638,43.24603],[-79.15619,43.2462],[-79.156,43.24629],[-79.1556,43.24631],[-79.15508,43.24651],[-79.15497,43.24663],[-79.15505,43.24674],[-79.15487,43.24686],[-79.1548,43.24683],[-79.15479,43.2469],[-79.15452,43.24707],[-79.15447,43.24708],[-79.1545,43.24701],[-79.15447,43.24699],[-79.15422,43.247],[-79.15328,43.24738],[-79.15292,43.24762],[-79.15218,43.24784],[-79.15171,43.24824],[-79.15162,43.24871],[-79.15157,43.24877],[-79.1512,43.2489],[-79.15099,43.24905],[-79.15028,43.24936],[-79.14955,43.24978],[-79.14931,43.24997],[-79.149,43.25013],[-79.14872,43.25037],[-79.14826,43.25056],[-79.14679,43.25156],[-79.1461,43.25187],[-79.14589,43.2521],[-79.14565,43.25214],[-79.14477,43.25255],[-79.14362,43.25297],[-79.14331,43.25337],[-79.14305,43.25351],[-79.14233,43.25383],[-79.14042,43.25455],[-79.13932,43.25503],[-79.13903,43.25535],[-79.13868,43.2556],[-79.13828,43.25568],[-79.13777,43.25596],[-79.13751,43.25604],[-79.13656,43.25592],[-79.1358,43.25605],[-79.1351,43.25635],[-79.13505,43.25648],[-79.13507,43.25653],[-79.13516,43.25656],[-79.13518,43.25663],[-79.13489,43.25661],[-79.13428,43.25683],[-79.13412,43.25696],[-79.13421,43.25709],[-79.13384,43.25724],[-79.13367,43.25712],[-79.13286,43.25731],[-79.13257,43.25747],[-79.13209,43.25763],[-79.13177,43.25782],[-79.13134,43.25792],[-79.13114,43.25804],[-79.13067,43.258],[-79.13012,43.25802],[-79.12876,43.25821],[-79.12804,43.25836],[-79.12748,43.25864],[-79.12741,43.25854],[-79.12724,43.25848],[-79.12714,43.25839],[-79.12684,43.25836],[-79.12688,43.25823],[-79.1267,43.25826],[-79.12631,43.25789],[-79.12623,43.25774],[-79.1263,43.25755],[-79.1263,43.25737],[-79.12619,43.25722],[-79.12578,43.25702],[-79.12533,43.25692],[-79.1239,43.25671],[-79.12368,43.25677],[-79.12361,43.25693],[-79.12347,43.25694],[-79.12339,43.25693],[-79.12336,43.25684],[-79.1233,43.25681],[-79.12262,43.25663],[-79.12128,43.25654],[-79.12077,43.25655],[-79.11887,43.25634],[-79.11777,43.2563],[-79.11606,43.25641],[-79.11519,43.25639],[-79.11398,43.25657],[-79.11217,43.25674],[-79.11064,43.25707],[-79.11046,43.25716],[-79.11027,43.25717],[-79.10878,43.2576],[-79.10789,43.25778],[-79.10726,43.25798],[-79.10547,43.25835],[-79.10241,43.25877],[-79.10165,43.25883],[-79.10093,43.25902],[-79.10036,43.2591],[-79.09979,43.25931],[-79.09937,43.25937],[-79.0984,43.2596],[-79.09559,43.26047],[-79.09478,43.26061],[-79.0943,43.2608],[-79.09404,43.26084],[-79.09339,43.2611],[-79.09334,43.26124],[-79.09321,43.26137],[-79.09218,43.26148],[-79.09205,43.26156],[-79.08985,43.26181],[-79.08795,43.26225],[-79.08789,43.26232],[-79.08765,43.26236],[-79.08733,43.26231],[-79.08715,43.26234],[-79.08708,43.26239],[-79.08703,43.26225],[-79.08669,43.26226],[-79.08635,43.26237],[-79.0858,43.26246],[-79.08549,43.26245],[-79.08526,43.26238],[-79.08525,43.26237]]]}}]}